STARLINK-11411 [DTC]    
1 62018U 24213L   25277.88098069  .00160211  00000+0  12987-2 0  9999
2 62018  53.1557  89.3480 0000777  53.5085 306.6005 15.69768251 50447
STARLINK-11404 [DTC]    
1 62019U 24213M   25277.46472944  .00223123  00000+0  17960-2 0  9990
2 62019  53.1556  91.7357 0000809  68.0406 292.0698 15.69729002 50370
STARLINK-11378 [DTC]    
1 62020U 24213N   25277.59687259  .00209013  00000+0  16821-2 0  9990
2 62020  53.1555  90.4049 0001057  88.7407 271.3732 15.69779725 50401
STARLINK-32520          
1 62021U 24213P   25278.13131356  .00033950  00000+0  11530-2 0  9991
2 62021  53.1566 170.9958 0001281 115.7709 244.3424 15.30205653 49332
STARLINK-32539          
1 62022U 24213Q   25277.94745344  .00056331  00000+0  18998-2 0  9991
2 62022  53.1597 159.0192 0000879  49.7213 310.3864 15.30198347 49482
STARLINK-32334          
1 62023U 24213R   25278.14069553  .00035475  00000+0  12033-2 0  9996
2 62023  53.1577 170.3411 0000796  53.1964 306.9110 15.30223226 49346
STARLINK-32504          
1 62024U 24213S   25278.09226828  .00036216  00000+0  12282-2 0  9991
2 62024  53.1597 170.7565 0000871  75.3768 284.7329 15.30220421 49333
STARLINK-32493          
1 62025U 24213T   25277.99435234  .00060590  00000+0  20407-2 0  9993
2 62025  53.1580 171.5657 0001139  63.6614 296.4503 15.30208411 49312
STARLINK-32561          
1 62026U 24213U   25278.09859870  .00057998  00000+0  19532-2 0  9997
2 62026  53.1601 170.7924 0000816 115.5400 244.5685 15.30230782 49339
STARLINK-32512          
1 62027U 24213V   25278.08276947  .00039327  00000+0  13323-2 0  9993
2 62027  53.1588 170.6942 0000947  69.3177 290.7925 15.30213405 49338
STARLINK-32637          
1 62032U 24216A   25277.83095466  .00057074  00000+0  20636-2 0  9993
2 62032  43.0026  56.1388 0001826 270.7437  89.3206 15.27643257 50047
STARLINK-32582          
1 62033U 24216B   25277.86726152  .00090169  00000+0  32431-2 0  9998
2 62033  43.0040  63.3341 0002217 301.7556  58.3079 15.27612343 49960
STARLINK-32615          
1 62034U 24216C   25277.73874470  .00029834  00000+0  10888-2 0  9995
2 62034  43.0003  57.1635 0001518 274.8429  85.2249 15.27596014 48861
STARLINK-32592          
1 62035U 24216D   25278.08911635  .00020887  00000+0  76591-3 0  9993
2 62035  42.9984  62.4114 0000735 270.1025  89.9743 15.27601241 50008
STARLINK-32225          
1 62036U 24216E   25278.06953588  .00036356  00000+0  13232-2 0  9995
2 62036  43.0008  55.3450 0001829 270.0385  90.0257 15.27603548 50145
STARLINK-32595          
1 62037U 24216F   25277.88138948  .00027112  00000+0  98971-3 0  9994
2 62037  43.0016  63.4357 0001996 291.4269  68.6370 15.27626299 49978
