[{"OBJECT_NAME":"STARLINK-11411 [DTC]","OBJECT_ID":"2024-213L","EPOCH":"2025-10-04T21:08:36.731616","MEAN_MOTION":15.69768251,"ECCENTRICITY":7.77e-5,"INCLINATION":53.1557,"RA_OF_ASC_NODE":89.348,"ARG_OF_PERICENTER":53.5085,"MEAN_ANOMALY":306.6005,"EPHEMERIS_TYPE":0,"CLASSIFICATION_TYPE":"U","NORAD_CAT_ID":62018,"ELEMENT_SET_NO":999,"REV_AT_EPOCH":5044,"BSTAR":0.0012987,"MEAN_MOTION_DOT":0.00160211,"MEAN_MOTION_DDOT":0},{"OBJECT_NAME":"STARLINK-11404 [DTC]","OBJECT_ID":"2024-213M","EPOCH":"2025-10-04T11:09:12.623616","MEAN_MOTION":15.69729002,"ECCENTRICITY":8.09e-5,"INCLINATION":53.1556,"RA_OF_ASC_NODE":91.7357,"ARG_OF_PERICENTER":68.0406,"MEAN_ANOMALY":292.0698,"EPHEMERIS_TYPE":0,"CLASSIFICATION_TYPE":"U","NORAD_CAT_ID":62019,"ELEMENT_SET_NO":999,"REV_AT_EPOCH":5037,"BSTAR":0.001796,"MEAN_MOTION_DOT":0.00223123,"MEAN_MOTION_DDOT":0},{"OBJECT_NAME":"STARLINK-11378 [DTC]","OBJECT_ID":"2024-213N","EPOCH":"2025-10-04T14:19:29.791776","MEAN_MOTION":15.69779725,"ECCENTRICITY":0.0001057,"INCLINATION":53.1555,"RA_OF_ASC_NODE":90.4049,"ARG_OF_PERICENTER":88.7407,"MEAN_ANOMALY":271.3732,"EPHEMERIS_TYPE":0,"CLASSIFICATION_TYPE":"U","NORAD_CAT_ID":62020,"ELEMENT_SET_NO":999,"REV_AT_EPOCH":5040,"BSTAR":0.0016821,"MEAN_MOTION_DOT":0.00209013,"MEAN_MOTION_DDOT":0},{"OBJECT_NAME":"STARLINK-32520","OBJECT_ID":"2024-213P","EPOCH":"2025-10-05T03:09:05.491584","MEAN_MOTION":15.30205653,"ECCENTRICITY":0.0001281,"INCLINATION":53.1566,"RA_OF_ASC_NODE":170.9958,"ARG_OF_PERICENTER":115.7709,"MEAN_ANOMALY":244.3424,"EPHEMERIS_TYPE":0,"CLASSIFICATION_TYPE":"U","NORAD_CAT_ID":62021,"ELEMENT_SET_NO":999,"REV_AT_EPOCH":4933,"BSTAR":0.001153,"MEAN_MOTION_DOT":0.0003395,"MEAN_MOTION_DDOT":0},{"OBJECT_NAME":"STARLINK-32539","OBJECT_ID":"2024-213Q","EPOCH":"2025-10-04T22:44:19.977216","MEAN_MOTION":15.30198347,"ECCENTRICITY":8.79e-5,"INCLINATION":53.1597,"RA_OF_ASC_NODE":159.0192,"ARG_OF_PERICENTER":49.7213,"MEAN_ANOMALY":310.3864,"EPHEMERIS_TYPE":0,"CLASSIFICATION_TYPE":"U","NORAD_CAT_ID":62022,"ELEMENT_SET_NO":999,"REV_AT_EPOCH":4948,"BSTAR":0.0018998,"MEAN_MOTION_DOT":0.00056331,"MEAN_MOTION_DDOT":0},{"OBJECT_NAME":"STARLINK-32334","OBJECT_ID":"2024-213R","EPOCH":"2025-10-05T03:22:36.093792","MEAN_MOTION":15.30223226,"ECCENTRICITY":7.96e-5,"INCLINATION":53.1577,"RA_OF_ASC_NODE":170.3411,"ARG_OF_PERICENTER":53.1964,"MEAN_ANOMALY":306.911,"EPHEMERIS_TYPE":0,"CLASSIFICATION_TYPE":"U","NORAD_CAT_ID":62023,"ELEMENT_SET_NO":999,"REV_AT_EPOCH":4934,"BSTAR":0.0012033,"MEAN_MOTION_DOT":0.00035475,"MEAN_MOTION_DDOT":0},{"OBJECT_NAME":"STARLINK-32504","OBJECT_ID":"2024-213S","EPOCH":"2025-10-05T02:12:51.979392","MEAN_MOTION":15.30220421,"ECCENTRICITY":8.71e-5,"INCLINATION":53.1597,"RA_OF_ASC_NODE":170.7565,"ARG_OF_PERICENTER":75.3768,"MEAN_ANOMALY":284.7329,"EPHEMERIS_TYPE":0,"CLASSIFICATION_TYPE":"U","NORAD_CAT_ID":62024,"ELEMENT_SET_NO":999,"REV_AT_EPOCH":4933,"BSTAR":0.0012282,"MEAN_MOTION_DOT":0.00036216,"MEAN_MOTION_DDOT":0},{"OBJECT_NAME":"STARLINK-32493","OBJECT_ID":"2024-213T","EPOCH":"2025-10-04T23:51:52.042176","MEAN_MOTION":15.30208411,"ECCENTRICITY":0.0001139,"INCLINATION":53.158,"RA_OF_ASC_NODE":171.5657,"ARG_OF_PERICENTER":63.6614,"MEAN_ANOMALY":296.4503,"EPHEMERIS_TYPE":0,"CLASSIFICATION_TYPE":"U","NORAD_CAT_ID":62025,"ELEMENT_SET_NO":999,"REV_AT_EPOCH":4931,"BSTAR":0.0020407,"MEAN_MOTION_DOT":0.0006059,"MEAN_MOTION_DDOT":0},{"OBJECT_NAME":"STARLINK-32561","OBJECT_ID":"2024-213U","EPOCH":"2025-10-05T02:21:58.927680","MEAN_MOTION":15.30230782,"ECCENTRICITY":8.16e-5,"INCLINATION":53.1601,"RA_OF_ASC_NODE":170.7924,"ARG_OF_PERICENTER":115.54,"MEAN_ANOMALY":244.5685,"EPHEMERIS_TYPE":0,"CLASSIFICATION_TYPE":"U","NORAD_CAT_ID":62026,"ELEMENT_SET_NO":999,"REV_AT_EPOCH":4933,"BSTAR":0.0019532,"MEAN_MOTION_DOT":0.00057998,"MEAN_MOTION_DDOT":0},{"OBJECT_NAME":"STARLINK-32512","OBJECT_ID":"2024-213V","EPOCH":"2025-10-05T01:59:11.282208","MEAN_MOTION":15.30213405,"ECCENTRICITY":9.47e-5,"INCLINATION":53.1588,"RA_OF_ASC_NODE":170.6942,"ARG_OF_PERICENTER":69.3177,"MEAN_ANOMALY":290.7925,"EPHEMERIS_TYPE":0,"CLASSIFICATION_TYPE":"U","NORAD_CAT_ID":62027,"ELEMENT_SET_NO":999,"REV_AT_EPOCH":4933,"BSTAR":0.0013323,"MEAN_MOTION_DOT":0.00039327,"MEAN_MOTION_DDOT":0},{"OBJECT_NAME":"STARLINK-32637","OBJECT_ID":"2024-216A","EPOCH":"2025-10-04T19:56:34.482624","MEAN_MOTION":15.27643257,"ECCENTRICITY":0.0001826,"INCLINATION":43.0026,"RA_OF_ASC_NODE":56.1388,"ARG_OF_PERICENTER":270.7437,"MEAN_ANOMALY":89.3206,"EPHEMERIS_TYPE":0,"CLASSIFICATION_TYPE":"U","NORAD_CAT_ID":62032,"ELEMENT_SET_NO":999,"REV_AT_EPOCH":5004,"BSTAR":0.0020636,"MEAN_MOTION_DOT":0.00057074,"MEAN_MOTION_DDOT":0},{"OBJECT_NAME":"STARLINK-32582","OBJECT_ID":"2024-216B","EPOCH":"2025-10-04T20:48:51.395328","MEAN_MOTION":15.27612343,"ECCENTRICITY":0.0002217,"INCLINATION":43.004,"RA_OF_ASC_NODE":63.3341,"ARG_OF_PERICENTER":301.7556,"MEAN_ANOMALY":58.3079,"EPHEMERIS_TYPE":0,"CLASSIFICATION_TYPE":"U","NORAD_CAT_ID":62033,"ELEMENT_SET_NO":999,"REV_AT_EPOCH":4996,"BSTAR":0.0032431,"MEAN_MOTION_DOT":0.00090169,"MEAN_MOTION_DDOT":0},{"OBJECT_NAME":"STARLINK-32615","OBJECT_ID":"2024-216C","EPOCH":"2025-10-04T17:43:47.542080","MEAN_MOTION":15.27596014,"ECCENTRICITY":0.0001518,"INCLINATION":43.0003,"RA_OF_ASC_NODE":57.1635,"ARG_OF_PERICENTER":274.8429,"MEAN_ANOMALY":85.2249,"EPHEMERIS_TYPE":0,"CLASSIFICATION_TYPE":"U","NORAD_CAT_ID":62034,"ELEMENT_SET_NO":999,"REV_AT_EPOCH":4886,"BSTAR":0.0010888,"MEAN_MOTION_DOT":0.00029834,"MEAN_MOTION_DDOT":0},{"OBJECT_NAME":"STARLINK-32592","OBJECT_ID":"2024-216D","EPOCH":"2025-10-05T02:08:19.652640","MEAN_MOTION":15.27601241,"ECCENTRICITY":7.35e-5,"INCLINATION":42.9984,"RA_OF_ASC_NODE":62.4114,"ARG_OF_PERICENTER":270.1025,"MEAN_ANOMALY":89.9743,"EPHEMERIS_TYPE":0,"CLASSIFICATION_TYPE":"U","NORAD_CAT_ID":62035,"ELEMENT_SET_NO":999,"REV_AT_EPOCH":5000,"BSTAR":0.00076591,"MEAN_MOTION_DOT":0.00020887,"MEAN_MOTION_DDOT":0},{"OBJECT_NAME":"STARLINK-32225","OBJECT_ID":"2024-216E","EPOCH":"2025-10-05T01:40:07.900032","MEAN_MOTION":15.27603548,"ECCENTRICITY":0.0001829,"INCLINATION":43.0008,"RA_OF_ASC_NODE":55.345,"ARG_OF_PERICENTER":270.0385,"MEAN_ANOMALY":90.0257,"EPHEMERIS_TYPE":0,"CLASSIFICATION_TYPE":"U","NORAD_CAT_ID":62036,"ELEMENT_SET_NO":999,"REV_AT_EPOCH":5014,"BSTAR":0.0013232,"MEAN_MOTION_DOT":0.00036356,"MEAN_MOTION_DDOT":0},{"OBJECT_NAME":"STARLINK-32595","OBJECT_ID":"2024-216F","EPOCH":"2025-10-04T21:09:12.051072","MEAN_MOTION":15.27626299,"ECCENTRICITY":0.0001996,"INCLINATION":43.0016,"RA_OF_ASC_NODE":63.4357,"ARG_OF_PERICENTER":291.4269,"MEAN_ANOMALY":68.637,"EPHEMERIS_TYPE":0,"CLASSIFICATION_TYPE":"U","NORAD_CAT_ID":62037,"ELEMENT_SET_NO":999,"REV_AT_EPOCH":4997,"BSTAR":0.00098971,"MEAN_MOTION_DOT":0.00027112,"MEAN_MOTION_DDOT":0}]
